{
  "type": "FeatureCollection",
  "features": [
    {
      "type": "Feature",
      "properties": {
        "norad_id": 41003,
        "name": "FENGYUN 1C DEB",
        "group": "fengyun-1c-debris",
        "lat": -25.043617130543158,
        "lon": 86.30181147212457,
        "alt_km": 643.0170811914959,
        "timestamp": "2025-12-16T23:36:36.487067+00:00",
        "meta_object_name": "FENGYUN 1C DEB",
        "meta_object_id": "1999-025EXH",
        "meta_epoch": "2025-12-16T01:28:49.054368",
        "meta_mean_motion": 14.72972088,
        "meta_eccentricity": 0.00697312,
        "meta_inclination": 98.9662,
        "meta_ra_of_asc_node": 269.5151,
        "meta_arg_of_pericenter": 281.8657,
        "meta_mean_anomaly": 77.4734,
        "meta_ephemeris_type": 0,
        "meta_classification_type": "U",
        "meta_norad_cat_id": 41003,
        "meta_element_set_no": 999,
        "meta_rev_at_epoch": 52469,
        "meta_bstar": 0.0031107166,
        "meta_mean_motion_dot": 0.00020745,
        "meta_mean_motion_ddot": 0,
        "tle_line1": "1 41003U 99025EXH 25350.06167887  .00020745  00000+0  31107-2 0  9992",
        "tle_line2": "2 41003  98.9662 269.5151 0069731 281.8657  77.4734 14.72972088524698"
      },
      "geometry": {
        "type": "Point",
        "coordinates": [
          86.30181147212457,
          -25.043617130543158
        ]
      }
    },
    {
      "type": "Feature",
      "properties": {
        "norad_id": 41006,
        "name": "FENGYUN 1C DEB",
        "group": "fengyun-1c-debris",
        "lat": -7.961661004583702,
        "lon": 41.35735616721469,
        "alt_km": 1085.7059117298786,
        "timestamp": "2025-12-16T23:36:36.487078+00:00",
        "meta_object_name": "FENGYUN 1C DEB",
        "meta_object_id": "1999-025EXL",
        "meta_epoch": "2025-12-12T21:38:45.983904",
        "meta_mean_motion": 13.8536183,
        "meta_eccentricity": 0.01900708,
        "meta_inclination": 102.3668,
        "meta_ra_of_asc_node": 217.748,
        "meta_arg_of_pericenter": 8.2798,
        "meta_mean_anomaly": 352.1409,
        "meta_ephemeris_type": 0,
        "meta_classification_type": "U",
        "meta_norad_cat_id": 41006,
        "meta_element_set_no": 999,
        "meta_rev_at_epoch": 57491,
        "meta_bstar": 0.0039238836,
        "meta_mean_motion_dot": 5.076e-05,
        "meta_mean_motion_ddot": 0,
        "tle_line1": "1 41006U 99025EXL 25346.90192111  .00005076  00000+0  39239-2 0  9995",
        "tle_line2": "2 41006 102.3668 217.7480 0190070   8.2798 352.1409 13.85361830574917"
      },
      "geometry": {
        "type": "Point",
        "coordinates": [
          41.35735616721469,
          -7.961661004583702
        ]
      }
    },
    {
      "type": "Feature",
      "properties": {
        "norad_id": 41007,
        "name": "FENGYUN 1C DEB",
        "group": "fengyun-1c-debris",
        "lat": 29.547419856300163,
        "lon": 12.304282639721306,
        "alt_km": 815.9341786146806,
        "timestamp": "2025-12-16T23:36:36.487088+00:00",
        "meta_object_name": "FENGYUN 1C DEB",
        "meta_object_id": "1999-025EXM",
        "meta_epoch": "2025-11-29T06:55:22.773792",
        "meta_mean_motion": 13.85678237,
        "meta_eccentricity": 0.01723955,
        "meta_inclination": 99.9731,
        "meta_ra_of_asc_node": 359.205,
        "meta_arg_of_pericenter": 79.2855,
        "meta_mean_anomaly": 282.7657,
        "meta_ephemeris_type": 0,
        "meta_classification_type": "U",
        "meta_norad_cat_id": 41007,
        "meta_element_set_no": 999,
        "meta_rev_at_epoch": 57212,
        "meta_bstar": 0.0017167305,
        "meta_mean_motion_dot": 2.158e-05,
        "meta_mean_motion_ddot": 0,
        "tle_line1": "1 41007U 99025EXM 25333.28845803  .00002158  00000+0  17167-2 0  9990",
        "tle_line2": "2 41007  99.9731 359.2050 0172395  79.2855 282.7657 13.85678237572123"
      },
      "geometry": {
        "type": "Point",
        "coordinates": [
          12.304282639721306,
          29.547419856300163
        ]
      }
    },
    {
      "type": "Feature",
      "properties": {
        "norad_id": 41011,
        "name": "FENGYUN 1C DEB",
        "group": "fengyun-1c-debris",
        "lat": -34.32089320348828,
        "lon": 42.651149801299496,
        "alt_km": 547.1447446714665,
        "timestamp": "2025-12-16T23:36:36.487098+00:00",
        "meta_object_name": "FENGYUN 1C DEB",
        "meta_object_id": "1999-025EXR",
        "meta_epoch": "2025-12-16T02:07:38.398368",
        "meta_mean_motion": 14.42925727,
        "meta_eccentricity": 0.03098164,
        "meta_inclination": 99.1685,
        "meta_ra_of_asc_node": 35.357,
        "meta_arg_of_pericenter": 348.268,
        "meta_mean_anomaly": 11.1401,
        "meta_ephemeris_type": 0,
        "meta_classification_type": "U",
        "meta_norad_cat_id": 41011,
        "meta_element_set_no": 999,
        "meta_rev_at_epoch": 57205,
        "meta_bstar": 0.00040845328,
        "meta_mean_motion_dot": 2.378e-05,
        "meta_mean_motion_ddot": 0,
        "tle_line1": "1 41011U 99025EXR 25350.08863887  .00002378  00000+0  40845-3 0  9998",
        "tle_line2": "2 41011  99.1685  35.3570 0309816 348.2680  11.1401 14.42925727572058"
      },
      "geometry": {
        "type": "Point",
        "coordinates": [
          42.651149801299496,
          -34.32089320348828
        ]
      }
    },
    {
      "type": "Feature",
      "properties": {
        "norad_id": 41018,
        "name": "FENGYUN 1C DEB",
        "group": "fengyun-1c-debris",
        "lat": -12.594078209624248,
        "lon": -62.37230267685839,
        "alt_km": 1178.7573542668106,
        "timestamp": "2025-12-16T23:36:36.487108+00:00",
        "meta_object_name": "FENGYUN 1C DEB",
        "meta_object_id": "1999-025EXY",
        "meta_epoch": "2025-12-15T01:30:35.121600",
        "meta_mean_motion": 13.52371588,
        "meta_eccentricity": 0.03049079,
        "meta_inclination": 99.9356,
        "meta_ra_of_asc_node": 293.4577,
        "meta_arg_of_pericenter": 112.862,
        "meta_mean_anomaly": 250.5013,
        "meta_ephemeris_type": 0,
        "meta_classification_type": "U",
        "meta_norad_cat_id": 41018,
        "meta_element_set_no": 999,
        "meta_rev_at_epoch": 88206,
        "meta_bstar": 0.0022149287,
        "meta_mean_motion_dot": 1.917e-05,
        "meta_mean_motion_ddot": 0,
        "tle_line1": "1 41018U 99025EXY 25349.06290650  .00001917  00000+0  22149-2 0  9997",
        "tle_line2": "2 41018  99.9356 293.4577 0304907 112.8620 250.5013 13.52371588882060"
      },
      "geometry": {
        "type": "Point",
        "coordinates": [
          -62.37230267685839,
          -12.594078209624248
        ]
      }
    },
    {
      "type": "Feature",
      "properties": {
        "norad_id": 41822,
        "name": "FENGYUN 1C DEB",
        "group": "fengyun-1c-debris",
        "lat": 54.67574776934465,
        "lon": 44.64363858546837,
        "alt_km": 839.3250917976538,
        "timestamp": "2025-12-16T23:36:36.487118+00:00",
        "meta_object_name": "FENGYUN 1C DEB",
        "meta_object_id": "1999-025EXZ",
        "meta_epoch": "2025-12-15T17:00:37.027296",
        "meta_mean_motion": 14.24820831,
        "meta_eccentricity": 0.00556119,
        "meta_inclination": 98.7329,
        "meta_ra_of_asc_node": 55.9023,
        "meta_arg_of_pericenter": 212.086,
        "meta_mean_anomaly": 147.693,
        "meta_ephemeris_type": 0,
        "meta_classification_type": "U",
        "meta_norad_cat_id": 41822,
        "meta_element_set_no": 999,
        "meta_rev_at_epoch": 47415,
        "meta_bstar": 0.0011311813,
        "meta_mean_motion_dot": 2.637e-05,
        "meta_mean_motion_ddot": 0,
        "tle_line1": "1 41822U 99025EXZ 25349.70876189  .00002637  00000+0  11312-2 0  9998",
        "tle_line2": "2 41822  98.7329  55.9023 0055611 212.0860 147.6930 14.24820831474152"
      },
      "geometry": {
        "type": "Point",
        "coordinates": [
          44.64363858546837,
          54.67574776934465
        ]
      }
    },
    {
      "type": "Feature",
      "properties": {
        "norad_id": 41823,
        "name": "FENGYUN 1C DEB",
        "group": "fengyun-1c-debris",
        "lat": 70.98371703017654,
        "lon": -99.27992369348141,
        "alt_km": 819.2368412038159,
        "timestamp": "2025-12-16T23:36:36.487130+00:00",
        "meta_object_name": "FENGYUN 1C DEB",
        "meta_object_id": "1999-025EYA",
        "meta_epoch": "2025-12-16T02:51:44.555616",
        "meta_mean_motion": 14.23542278,
        "meta_eccentricity": 0.00548404,
        "meta_inclination": 98.7212,
        "meta_ra_of_asc_node": 53.4156,
        "meta_arg_of_pericenter": 218.5748,
        "meta_mean_anomaly": 141.1506,
        "meta_ephemeris_type": 0,
        "meta_classification_type": "U",
        "meta_norad_cat_id": 41823,
        "meta_element_set_no": 999,
        "meta_rev_at_epoch": 47406,
        "meta_bstar": 0.0011352456,
        "meta_mean_motion_dot": 2.58e-05,
        "meta_mean_motion_ddot": 0,
        "tle_line1": "1 41823U 99025EYA 25350.11926569  .00002580  00000+0  11352-2 0  9995",
        "tle_line2": "2 41823  98.7212  53.4156 0054840 218.5748 141.1506 14.23542278474066"
      },
      "geometry": {
        "type": "Point",
        "coordinates": [
          -99.27992369348141,
          70.98371703017654
        ]
      }
    }
  ]
}